ONEWEB-0401             
1 50481U 21132N   23331.60513980  .00000014  00000+0  21411-5 0  9999
2 50481  87.9210 160.9857 0001431  73.2164 286.9125 13.18687915 98701
ONEWEB-0402             
1 50482U 21132P   23331.57142959  .00000019  00000+0  15374-4 0  9995
2 50482  87.9208 160.9900 0000982  78.5610 281.5632 13.18684919 98729
ONEWEB-0403             
1 50483U 21132Q   23331.89812621 -.00000090  00000+0 -26031-3 0  9993
2 50483  87.9212 160.9283 0001685  78.9555 281.1767 13.18687131 98726
ONEWEB-0404             
1 50484U 21132R   23331.67965452 -.00000352  00000+0 -10290-2 0  9991
2 50484  87.8990 206.3478 0002113  74.6064 285.5297 13.11416051 93472
ONEWEB-0405             
1 50485U 21132S   23331.91393560 -.00028737  00000+0 -72985-1 0  9999
2 50485  87.9212 160.9150 0001474  64.3472 295.7812 13.18842250 99126
ONEWEB-0406             
1 50486U 21132T   23331.90232342 -.00000027  00000+0 -10108-3 0  9992
2 50486  87.9209 160.9267 0002024  82.1216 278.0146 13.18688338 98755
ONEWEB-0407             
1 50487U 21132U   23331.59251821  .00000006  00000+0 -17847-4 0  9995
2 50487  87.9210 160.9963 0001605  80.5821 279.5493 13.18687084 98656
ONEWEB-0409             
1 50488U 21132V   23331.67801167 -.00000323  00000+0 -94751-3 0  9990
2 50488  87.8981 206.3625 0002210  79.3271 280.8106 13.11415446 93362
